NORAD_CAT_ID,OBJECT_NAME,OBJECT_TYPE,EPOCH,MEAN_MOTION,ECCENTRICITY,INCLINATION,RA_OF_ASC_NODE,ARG_OF_PERICENTER,MEAN_ANOMALY,BSTAR,MEAN_MOTION_DOT,MEAN_MOTION_DDOT,TLE_LINE0,TLE_LINE1,TLE_LINE2,SEMIMAJOR_AXIS,PERIOD,APOGEE,PERIGEE,DECAYED
54771.0,STARLINK-5451,PAYLOAD,2023-01-06 22:13:19,15.73210498,0.0001716,53.2127,206.6168,42.9221,317.1933,0.00040293,0.00056335,0.0,0 STARLINK-5451,1 54771U 22175P   23006.92591728  .00056335  00000-0  40293-3 0  9998,2 54771  53.2127 206.6168 0001716  42.9221 317.1933 15.73210498  5068,6727.865,91.533,350.885,348.576,0.0
54771.0,STARLINK-5451,PAYLOAD,2023-01-07 05:50:43,15.73232582,0.0001984,53.213,205.0446,53.41,306.7103,0.0003128,0.0004357,0.0,0 STARLINK-5451,1 54771U 22175P   23007.24355462  .00043570  00000-0  31280-3 0  9990,2 54771  53.2130 205.0446 0001984  53.4100 306.7103 15.73232582  2950,6727.802,91.531,351.0019999999999,348.332,0.0
54771.0,STARLINK-5451,PAYLOAD,2023-01-07 13:28:06,15.73207747,0.0001071,53.2128,203.4702,26.7568,333.3507,1.5402e-05,1.543e-05,0.0,0 STARLINK-5451,1 54771U 22175P   23007.56119210  .00001543  00000-0  15402-4 0  9997,2 54771  53.2128 203.4702 0001071  26.7568 333.3507 15.73207747  3008,6727.873000000001,91.533,350.459,349.0180000000001,0.0
54771.0,STARLINK-5451,PAYLOAD,2023-01-08 12:20:19,15.73256964,0.0001882,53.2125,198.7572,58.2907,301.8297,0.00046927,0.00065921,0.0,0 STARLINK-5451,1 54771U 22175P   23008.51411896  .00065921  00000-0  46927-3 0  9993,2 54771  53.2125 198.7572 0001882  58.2907 301.8297 15.73256964  3150,6727.733,91.53,350.8640000000001,348.332,0.0
54771.0,STARLINK-5451,PAYLOAD,2023-01-08 21:29:12,15.73235017,5.51e-05,53.2143,196.8681,342.6013,17.4988,0.00027277,0.00037892,0.0,0 STARLINK-5451,1 54771U 22175P   23008.89528073  .00037892  00000-0  27277-3 0  9993,2 54771  53.2143 196.8681 0000551 342.6013  17.4988 15.73235017  5379,6727.795,91.531,350.031,349.29,0.0
54771.0,STARLINK-5451,PAYLOAD,2023-01-10 02:27:19,15.73276579,4.24e-05,53.2126,190.8958,24.5485,335.5555,0.00042561,0.00059734,0.0,0 STARLINK-5451,1 54771U 22175P   23010.10230909  .00059734  00000-0  42561-3 0  9990,2 54771  53.2126 190.8958 0000424  24.5485 335.5555 15.73276579  3403,6727.677,91.529,349.827,349.25699999999995,0.0
54771.0,STARLINK-5451,PAYLOAD,2023-01-10 13:07:41,15.73216761,0.0001769,53.2125,188.6952,35.4004,324.7133,0.00025668,0.00035582,0.0,0 STARLINK-5451,1 54771U 22175P   23010.54700824  .00035582  00000-0  25668-3 0  9990,2 54771  53.2125 188.6952 0001769  35.4004 324.7133 15.73216761  3478,6727.847,91.532,350.903,348.522,0.0
54771.0,STARLINK-5451,PAYLOAD,2023-01-10 20:45:06,15.73190676,0.0001938,53.2114,187.1265,32.4643,327.6496,0.00011321,0.00015291,0.0,0 STARLINK-5451,1 54771U 22175P   23010.86465328  .00015291  00000-0  11321-3 0  9998,2 54771  53.2114 187.1265 0001938  32.4643 327.6496 15.73190676  3527,6727.922,91.534,351.091,348.483,0.0
54771.0,STARLINK-5451,PAYLOAD,2023-01-11 13:31:48,15.72354187,7.2e-05,53.2126,183.6679,38.1055,322.0016,-0.0017422999999999,-0.00230093,0.0,0 STARLINK-5451,1 54771U 22175P   23011.56375418 -.00230093  00000-0 -17423-2 0  9995,2 54771  53.2126 183.6679 0000720  38.1055 322.0016 15.72354187  3635,6730.308000000001,91.582,352.657,351.6880000000001,0.0
54771.0,STARLINK-5451,PAYLOAD,2023-01-11 18:06:29,15.72030785,9.37e-05,53.213,182.7263,69.4703,290.6417,-0.0019391,-0.00251881,0.0,0 STARLINK-5451,1 54771U 22175P   23011.75450897 -.00251881  00000-0 -19391-2 0  9995,2 54771  53.2130 182.7263 0000937  69.4703 290.6417 15.72030785  3669,6731.231,91.601,353.726,352.465,0.0
54771.0,STARLINK-5451,PAYLOAD,2023-01-11 21:09:40,15.71742395,0.0001327,53.2122,182.0979,21.9826,338.125,-0.002091,-0.00267782,0.0,0 STARLINK-5451,1 54771U 22175P   23011.88171916 -.00267782  00000-0 -20910-2 0  9997,2 54771  53.2122 182.0979 0001327  21.9826 338.1250 15.71742395  5841,6732.054,91.618,354.8119999999999,353.026,0.0
54771.0,STARLINK-5451,PAYLOAD,2023-01-12 08:00:01,15.70407017,0.0001099,53.2138,179.8682,89.535,306.22,-0.0075718999999999,-0.00853327,0.0,0 STARLINK-5451,1 54771U 22175P   23012.33334491 -.00853327  00000-0 -75719-2 0  9990,2 54771  53.2138 179.8682 0001099  89.5350 306.2200 15.70407017  3758,6735.87,91.696,358.475,356.995,0.0
54771.0,STARLINK-5451,PAYLOAD,2023-01-12 22:00:00,15.6928251,0.0001286,53.2127,176.9993,73.0203,21.3262,-0.008095,-0.00868684,0.0,0 STARLINK-5451,1 54771U 22175P   23012.91667824 -.00868684  00000-0 -80950-2 0  9998,2 54771  53.2127 176.9993 0001286  73.0203  21.3262 15.69282510  3842,6739.087,91.762,361.819,360.086,0.0
54771.0,STARLINK-5451,PAYLOAD,2023-01-13 14:00:01,15.6801251,0.0001217999999999,53.2128,173.7214,97.9134,163.3275,-0.0092008,-0.00944379,0.0,0 STARLINK-5451,1 54771U 22175P   23013.58334491 -.00944379  00000-0 -92008-2 0  9996,2 54771  53.2128 173.7214 0001218  97.9134 163.3275 15.68012510  1307,6742.726,91.836,365.412,363.769,0.0
54771.0,STARLINK-5451,PAYLOAD,2023-01-13 16:00:00,15.6783771,0.0001078,53.2126,173.3127,89.3728,282.515,-0.009105,-0.00929274,0.0,0 STARLINK-5451,1 54771U 22175P   23013.66667824 -.00929274  00000-0 -91050-2 0  9997,2 54771  53.2126 173.3127 0001078  89.3728 282.5150 15.67837710  3968,6743.227,91.846,365.819,364.365,0.0
54771.0,STARLINK-5451,PAYLOAD,2023-01-13 22:00:00,15.67338702,8.83e-05,53.2126,172.0866,76.806,266.7138,-0.0089553,-0.00898323,0.0,0 STARLINK-5451,1 54771U 22175P   23013.91667824 -.00898323  00000-0 -89553-2 0  9990,2 54771  53.2126 172.0866 0000883  76.8060 266.7138 15.67338702  1300,6744.658,91.875,367.119,365.927,0.0
54771.0,STARLINK-5451,PAYLOAD,2023-01-15 00:00:00,15.65255901,9.01e-05,53.2125,166.7793,65.64699999999999,269.8551,-0.0104319999999999,-0.00955791,0.0,0 STARLINK-5451,1 54771U 22175P   23015.00001157 -.00955791  00000-0 -10432-1 0  9995,2 54771  53.2125 166.7793 0000901  65.6470 269.8551 15.65255901  4178,6750.64,91.998,373.11300000000006,371.897,0.0
54771.0,STARLINK-5451,PAYLOAD,2023-01-15 14:00:01,15.64099389,9.79e-05,53.2124,163.9288,72.6542,310.5091,-0.010689,-0.00936917,0.0,0 STARLINK-5451,1 54771U 22175P   23015.58334491 -.00936917  00000-0 -10689-1 0  9991,2 54771  53.2124 163.9288 0000979  72.6542 310.5091 15.64099389  1308,6753.967,92.066,376.49300000000005,375.171,0.0
54771.0,STARLINK-5451,PAYLOAD,2023-01-15 22:00:01,15.634468599999998,0.0001202,53.2118,162.3029,60.0396,40.7642,-0.010723,-0.00917774,0.0,0 STARLINK-5451,1 54771U 22175P   23015.91668981 -.00917774  00000-0 -10723-1 0  9991,2 54771  53.2118 162.3029 0001202  60.0396  40.7642 15.63446860  1308,6755.846,92.104,378.523,376.899,0.0
54771.0,STARLINK-5451,PAYLOAD,2023-01-16 14:00:01,15.62140509,0.0001193,53.2121,159.0537,80.0843,173.4786,-0.011429,-0.00928084,0.0,0 STARLINK-5451,1 54771U 22175P   23016.58334491 -.00928084  00000-0 -11429-1 0  9991,2 54771  53.2121 159.0537 0001193  80.0843 173.4786 15.62140509  4415,6759.611999999999,92.181,382.284,380.671,0.0
54771.0,STARLINK-5451,PAYLOAD,2023-01-16 16:00:00,15.61960098,0.0001143,53.2121,158.6485,71.5362,290.9128,-0.0110879999999999,-0.00897014,0.0,0 STARLINK-5451,1 54771U 22175P   23016.66667824 -.00897014  00000-0 -11088-1 0  9998,2 54771  53.2121 158.6485 0001143  71.5362 290.9128 15.61960098  1300,6760.133000000001,92.192,382.77,381.225,0.0
54771.0,STARLINK-5451,PAYLOAD,2023-01-17 14:00:01,15.60180385,0.0001315999999999,53.212,154.1928,77.2583,39.6657,-0.012159,-0.00916112,0.0,0 STARLINK-5451,1 54771U 22175P   23017.58334491 -.00916112  00000-0 -12159-1 0  9992,2 54771  53.2120 154.1928 0001316  77.2583  39.6657 15.60180385  1309,6765.273,92.297,388.028,386.247,0.0
54771.0,STARLINK-5451,PAYLOAD,2023-01-17 16:00:00,15.6000318,0.0001399,53.212,153.7888,79.023,146.1999,-0.011822,-0.00887411,0.0,0 STARLINK-5451,1 54771U 22175P   23017.66667824 -.00887411  00000-0 -11822-1 0  9995,2 54771  53.2120 153.7888 0001399  79.0230 146.1999 15.60003180  4582,6765.785,92.308,388.596,386.703,0.0
54771.0,STARLINK-5451,PAYLOAD,2023-01-17 22:00:00,15.59556578,0.0001346,53.2115,152.576,78.5115,111.2871,-0.0129259999999999,-0.00947585,0.0,0 STARLINK-5451,1 54771U 22175P   23017.91667824 -.00947585  00000-0 -12926-1 0  9998,2 54771  53.2115 152.5760 0001346  78.5115 111.2871 15.59556578  1301,6767.076,92.334,389.852,388.031,0.0
54771.0,STARLINK-5451,PAYLOAD,2023-01-18 12:00:00,15.58399471,0.000124,53.2119,149.7489,91.4896,133.9914,-0.01319,-0.00927136,0.0,0 STARLINK-5451,1 54771U 22175P   23018.50001157 -.00927136  00000-0 -13190-1 0  9999,2 54771  53.2119 149.7489 0001240  91.4896 133.9914 15.58399471  4717,6770.426,92.402,393.13,391.451,0.0
54771.0,STARLINK-5451,PAYLOAD,2023-01-18 14:00:01,15.5822076,0.0001137,53.2117,149.3461,85.8048,247.4388,-0.012909,-0.00903522,0.0,0 STARLINK-5451,1 54771U 22175P   23018.58334491 -.00903522  00000-0 -12909-1 0  9997,2 54771  53.2117 149.3461 0001137  85.8048 247.4388 15.58220760  1304,6770.943,92.413,393.578,392.039,0.0
54771.0,STARLINK-5451,PAYLOAD,2023-01-18 22:00:00,15.57598119,0.0001202,53.2116,147.7339,72.271,331.5013,-0.013778,-0.00938333,0.0,0 STARLINK-5451,1 54771U 22175P   23018.91667824 -.00938333  00000-0 -13778-1 0  9996,2 54771  53.2116 147.7339 0001202  72.2710 331.5013 15.57598119  1303,6772.7480000000005,92.45,395.427,393.799,0.0
54771.0,STARLINK-5451,PAYLOAD,2023-01-19 14:00:01,15.56267995,0.0001422,53.2124,144.5134,77.8299,104.6907,-0.013914,-0.00904736,0.0,0 STARLINK-5451,1 54771U 22175P   23019.58334491 -.00904736  00000-0 -13914-1 0  9993,2 54771  53.2124 144.5134 0001422  77.8299 104.6907 15.56267995  4888,6776.606,92.529,399.435,397.508,0.0
54771.0,STARLINK-5451,PAYLOAD,2023-01-20 14:00:01,15.54319344,0.0001262,53.2128,139.6953,78.9036,305.8514,-0.015018,-0.00908024,0.0,0 STARLINK-5451,1 54771U 22175P   23020.58334491 -.00908024  00000-0 -15018-1 0  9996,2 54771  53.2128 139.6953 0001262  78.9036 305.8514 15.54319344  5041,6782.269,92.645,404.99,403.278,0.0
